ORBCOMM-X               
1 21576U 91050C   25099.74138124  .00000787  00000+0  24688-3 0  9993
2 21576  98.3484 167.7200 0004362  49.3880 310.7690 14.43191227772241
ORBCOMM FM01            
1 23545U 95017A   25099.77569006  .00015575  00000+0  16561-2 0  9999
2 23545  69.9627 244.6094 0000797 356.4634   3.6515 14.89050045602322
ORBCOMM FM02            
1 23546U 95017B   25099.82038021  .00016790  00000+0  17579-2 0  9994
2 23546  69.9641 264.0807 0001654  47.9309 312.1985 14.89651474601973
ORBCOMM FM08            
1 25112U 97084A   25099.90649271  .00003450  00000+0  10088-2 0  9992
2 25112  45.0148 335.5820 0005901 266.2800  93.7377 14.45526683431491
ORBCOMM FM10            
1 25113U 97084B   25099.94676391  .00003331  00000+0  97968-3 0  9991
2 25113  45.0160 337.6510 0004059 230.1176 129.9319 14.45314953606648
ORBCOMM FM11            
1 25114U 97084C   25099.93957689  .00002935  00000+0  87266-3 0  9992
2 25114  45.0146 338.1952 0004877 232.1289 127.9121 14.45065329431638
ORBCOMM FM12            
1 25115U 97084D   25099.97221072  .00003059  00000+0  90714-3 0  9997
2 25115  45.0155 337.7965 0003860 229.7603 130.2911 14.45091536431409
ORBCOMM FM09            
1 25116U 97084E   25099.99879254  .00002759  00000+0  82430-3 0  9993
2 25116  45.0156 338.5352 0005185 216.2774 143.7726 14.44975519431642
